"0":"2 40889  55.2777 245.0164 0006410  41.2221 318.8457  1.70473463 52568","1":"2 41175  55.3688 124.5423 0003283 301.2187  58.7958  1.70474820 50903","2":"2 41175  55.3688 124.5423 0003283 301.2187  58.7958  1.70474820 50745","3":"2 49809  57.2958   4.5312 0002329 269.4508 272.4245  1.70475739 13736","5":"2 37846  57.1266   4.7082 0003855 350.4944   9.4791  1.70475942 76673","6":"2 40890  55.2735 245.0055 0004281  42.7490 317.3029  1.70473503 52598","7":"2 38857  55.3522 124.8303 0004970 262.2862  97.7047  1.70473587 70568","8":"2 43566  57.3050   4.6306 0004935 305.6849  54.2499  1.70475603 34745","9":"2 41550  55.4216 244.9992 0001619   2.1734 357.8452  1.70473747 48201","10":"2 41550  55.4216 244.9992 0001619   2.1734 357.8452  1.70473747 48223","11":"2 43058  55.3970 244.8158 0002121 312.7145  47.2848  1.70474347 38542","12":"2 43058  55.3970 244.8158 0002121 312.7145  47.2848  1.70474347 38575","13":"2 41860  55.0320 124.5570 0002689 310.9088  49.1173  1.70475003 45218","14":"2 37847  57.1284   4.6986 0005280 331.2004 295.4560  1.70475388 76804","15":"2 37847  57.1284   4.6986 0005280 331.2004 295.4560  1.70475388 76680","16":"2 40544  56.9219   4.6482 0004751 285.6188  74.3096  1.70475793 55428","17":"2 40544  56.9219   4.6482 0004751 285.6188  74.3096  1.70475793 54764","18":"2 43565  57.3056   4.6189 0004039 277.1111  82.8236  1.70475302 34774","19":"2 43565  57.3056   4.6189 0004039 277.1111  82.8236  1.70475302 34774"