<!DOCTYPE html PUBLIC "-//W3C//DTD XHTML 1.0 Strict//EN" "http://www.w3.org/TR/xhtml1/DTD/xhtml1-strict.dtd">
<html xmlns="http://www.w3.org/1999/xhtml">
<head>
<meta http-equiv="Content-Type" content="text/html; charset=iso-8859-1"/>
<title>404 - File Not Found.</title>
<style type="text/css">
<!--
body{margin:0;font-size:.7em;font-family:Verdana, Arial, Helvetica, sans-serif;background:#EEEEEE;}
fieldset{padding:0 15px 10px 15px;}
h1{font-size:2.4em;margin:0;color:#FFF;}
h2{font-size:1.7em;margin:0;color:#CC0000;}
h3{font-size:1.2em;margin:10px 0 0 0;color:#000000;}
#header{width:96%;margin:0 0 0 0;padding:6px 2% 6px 2%;font-family:"trebuchet MS", Verdana, sans-serif;color:#FFF;
background-color:#555555;}
#content{margin:0 0 0 2%;position:relative;}
.content-container{background:#FFF;width:96%;margin-top:8px;padding:10px;position:relative;}
-->
</style>
</head>
<body>
<div id="header"><h1>Server Error</h1></div>
<div id="content">
 <div class="content-container"><fieldset>
  <h2>404 - File Not Found.</h2>
  <h3>File not found for celestrak.org/NORAD/elements/education.txt.</h3>
  <h3>Please contact <a href="mailto:ts.kelso@celestrak.org">ts.kelso@celestrak.org</a> if you have other questions.</h3>
 </fieldset></div>
</div>
</body>
</html>
<!DOCTYPE html PUBLIC "-//W3C//DTD XHTML 1.0 Strict//EN" "http://www.w3.org/TR/xhtml1/DTD/xhtml1-strict.dtd">
<html xmlns="http://www.w3.org/1999/xhtml">
<head>
<meta http-equiv="Content-Type" content="text/html; charset=iso-8859-1"/>
<title>404 - File Not Found.</title>
<style type="text/css">
<!--
body{margin:0;font-size:.7em;font-family:Verdana, Arial, Helvetica, sans-serif;background:#EEEEEE;}
fieldset{padding:0 15px 10px 15px;}
h1{font-size:2.4em;margin:0;color:#FFF;}
h2{font-size:1.7em;margin:0;color:#CC0000;}
h3{font-size:1.2em;margin:10px 0 0 0;color:#000000;}
#header{width:96%;margin:0 0 0 0;padding:6px 2% 6px 2%;font-family:"trebuchet MS", Verdana, sans-serif;color:#FFF;
background-color:#555555;}
#content{margin:0 0 0 2%;position:relative;}
.content-container{background:#FFF;width:96%;margin-top:8px;padding:10px;position:relative;}
-->
</style>
</head>
<body>
<div id="header"><h1>Server Error</h1></div>
<div id="content">
 <div class="content-container"><fieldset>
  <h2>404 - File Not Found.</h2>
  <h3>File not found for celestrak.org/NORAD/elements/engineering.txt.</h3>
  <h3>Please contact <a href="mailto:ts.kelso@celestrak.org">ts.kelso@celestrak.org</a> if you have other questions.</h3>
 </fieldset></div>
</div>
</body>
</html>
GSAT0101 (PRN E11)      
1 37846U 11060A   24051.81963504 -.00000105  00000+0  00000+0 0  9999
2 37846  57.1266   4.7082 0003855 350.4944   9.4791  1.70475942 76673
GSAT0102 (PRN E12)      
1 37847U 11060B   24052.17935234 -.00000105  00000+0  00000+0 0  9999
2 37847  57.1284   4.6986 0005280 331.2004 295.4560  1.70475388 76680
GSAT0103 (PRN E19)      
1 38857U 12055A   24051.85893855 -.00000026  00000+0  00000+0 0  9994
2 38857  55.3522 124.8303 0004970 262.2862  97.7047  1.70473587 70568
GSAT0203 (PRN E26)      
1 40544U 15017A   24052.18542625 -.00000106  00000+0  00000+0 0  9993
2 40544  56.9219   4.6482 0004751 285.6188  74.3096  1.70475793 54764
GSAT0205 (PRN E24)      
1 40889U 15045A   24051.62150176  .00000053  00000+0  00000+0 0  9990
2 40889  55.2777 245.0164 0006410  41.2221 318.8457  1.70473463 52568
GSAT0206 (PRN E30)      
1 40890U 15045B   24051.84213594  .00000052  00000+0  00000+0 0  9999
2 40890  55.2735 245.0055 0004281  42.7490 317.3029  1.70473503 52598
GSAT0208 (PRN E08)      
1 41175U 15079B   24051.64545597 -.00000028  00000+0  00000+0 0  9996
2 41175  55.3688 124.5423 0003283 301.2187  58.7958  1.70474820 50745
GSAT0210 (PRN E01)      
1 41550U 16030B   24052.05910908  .00000052  00000+0  00000+0 0  9995
2 41550  55.4216 244.9992 0001619   2.1734 357.8452  1.70473747 48223
GSAT0212 (PRN E03)      
1 41860U 16069B   24052.16050240 -.00000024  00000+0  00000+0 0  9997
2 41860  55.0320 124.5570 0002689 310.9088  49.1173  1.70475003 45218
GSAT0218 (PRN E31)      
1 43058U 17079D   24052.13616219  .00000051  00000+0  00000+0 0  9990
2 43058  55.3970 244.8158 0002121 312.7145  47.2848  1.70474347 38575
GSAT0222 (PRN E33)      
1 43565U 18060B   24052.25428213 -.00000105  00000+0  00000+0 0  9993
2 43565  57.3056   4.6189 0004039 277.1111  82.8236  1.70475302 34774
GSAT0219 (PRN E36)      
1 43566U 18060C   24051.88976796 -.00000105  00000+0  00000+0 0  9996
2 43566  57.3050   4.6306 0004935 305.6849  54.2499  1.70475603 34745
GSAT0223 (PRN E34)      
1 49809U 21116A   24051.67292411 -.00000105  00000+0  00000+0 0  9990
2 49809  57.2958   4.5312 0002329 269.4508 272.4245  1.70475739 13736
